{"type": "FeatureCollection", "features": [ {"type": "Feature", "properties": {"norad_id": 66645, "name": "SHENZHOU-22", "group": "last-30-days", "lat": 40.36250556887416, "lon": 30.735901849194644, "alt_km": 378.2011983671009, "timestamp": "2025-12-22T15:43:47.683932+00:00", "meta": {"OBJECT_NAME": "SHENZHOU-22", "OBJECT_ID": "2025-272A", "EPOCH": "2025-12-22T04:38:19.938912", "MEAN_MOTION": 15.59558261, "ECCENTRICITY": 0.00077972, "INCLINATION": 41.4687, "RA_OF_ASC_NODE": 319.2988, "ARG_OF_PERICENTER": 114.0639, "MEAN_ANOMALY": 246.1016, "EPHEMERIS_TYPE": 0, "CLASSIFICATION_TYPE": "U", "NORAD_CAT_ID": 66645, "ELEMENT_SET_NO": 999, "REV_AT_EPOCH": 26550, "BSTAR": 0.00024063854, "MEAN_MOTION_DOT": 0.00019415, "MEAN_MOTION_DDOT": 0}, "tle": {"line1": "1 66645U 25272A   25356.19328633  .00019415  00000+0  24064-3 0  9999", "line2": "2 66645  41.4687 319.2988 0007797 114.0639 246.1016 15.59558261265508"}}, "geometry": {"type": "Point", "coordinates": [30.735901849194644, 40.36250556887416]}}, {"type": "Feature", "properties": {"norad_id": 66647, "name": "COSMOS 2597 (RODNIK-S 22)", "group": "last-30-days", "lat": 39.00036294388044, "lon": 94.16838306917408, "alt_km": 1498.454590425712, "timestamp": "2025-12-22T15:43:47.683942+00:00", "meta": {"OBJECT_NAME": "COSMOS 2597 (RODNIK-S 22)", "OBJECT_ID": "2025-273A", "EPOCH": "2025-12-22T05:18:28.999008", "MEAN_MOTION": 12.41952083, "ECCENTRICITY": 0.00076156, "INCLINATION": 82.4994, "RA_OF_ASC_NODE": 280.5617, "ARG_OF_PERICENTER": 264.0825, "MEAN_ANOMALY": 95.9386, "EPHEMERIS_TYPE": 0, "CLASSIFICATION_TYPE": "U", "NORAD_CAT_ID": 66647, "ELEMENT_SET_NO": 999, "REV_AT_EPOCH": 331, "BSTAR": 0.00010562443, "MEAN_MOTION_DOT": 2.4e-07, "MEAN_MOTION_DDOT": 0}, "tle": {"line1": "1 66647U 25273A   25356.22116897  .00000024  00000+0  10562-3 0  9997", "line2": "2 66647  82.4994 280.5617 0007615 264.0825  95.9386 12.41952083  3314"}}, "geometry": {"type": "Point", "coordinates": [94.16838306917408, 39.00036294388044]}}, {"type": "Feature", "properties": {"norad_id": 66648, "name": "COSMOS 2598 (RODNIK-S 23)", "group": "last-30-days", "lat": -41.65160042727275, "lon": 107.00640491401815, "alt_km": 1493.0359672339555, "timestamp": "2025-12-22T15:43:47.683952+00:00", "meta": {"OBJECT_NAME": "COSMOS 2598 (RODNIK-S 23)", "OBJECT_ID": "2025-273B", "EPOCH": "2025-12-22T04:52:56.144640", "MEAN_MOTION": 12.43233633, "ECCENTRICITY": 0.00081341, "INCLINATION": 82.5032, "RA_OF_ASC_NODE": 280.5621, "ARG_OF_PERICENTER": 214.2361, "MEAN_ANOMALY": 145.8195, "EPHEMERIS_TYPE": 0, "CLASSIFICATION_TYPE": "U", "NORAD_CAT_ID": 66648, "ELEMENT_SET_NO": 999, "REV_AT_EPOCH": 331, "BSTAR": 0.00027841438, "MEAN_MOTION_DOT": 4.9e-07, "MEAN_MOTION_DDOT": 0}, "tle": {"line1": "1 66648U 25273B   25356.20342760  .00000049  00000+0  27841-3 0  9991", "line2": "2 66648  82.5032 280.5621 0008134 214.2361 145.8195 12.43233633  3311"}}, "geometry": {"type": "Point", "coordinates": [107.00640491401815, -41.65160042727275]}}, {"type": "Feature", "properties": {"norad_id": 66649, "name": "COSMOS 2599 (RODNIK-S 24)", "group": "last-30-days", "lat": 81.78340233866236, "lon": 34.59575070767132, "alt_km": 1498.941872275669, "timestamp": "2025-12-22T15:43:47.683963+00:00", "meta": {"OBJECT_NAME": "COSMOS 2599 (RODNIK-S 24)", "OBJECT_ID": "2025-273C", "EPOCH": "2025-12-22T05:33:18.417888", "MEAN_MOTION": 12.41151062, "ECCENTRICITY": 0.00062524, "INCLINATION": 82.505, "RA_OF_ASC_NODE": 280.5863, "ARG_OF_PERICENTER": 255.1338, "MEAN_ANOMALY": 104.9048, "EPHEMERIS_TYPE": 0, "CLASSIFICATION_TYPE": "U", "NORAD_CAT_ID": 66649, "ELEMENT_SET_NO": 999, "REV_AT_EPOCH": 331, "BSTAR": 0.00020164717, "MEAN_MOTION_DOT": 3.7e-07, "MEAN_MOTION_DDOT": 0}, "tle": {"line1": "1 66649U 25273C   25356.23146317  .00000037  00000+0  20165-3 0  9994", "line2": "2 66649  82.5050 280.5863 0006252 255.1338 104.9048 12.41151062  3313"}}, "geometry": {"type": "Point", "coordinates": [34.59575070767132, 81.78340233866236]}}, {"type": "Feature", "properties": {"norad_id": 66650, "name": "BEE-1000", "group": "last-30-days", "lat": -46.12874327902806, "lon": 95.52775998451222, "alt_km": 592.0348068187968, "timestamp": "2025-12-22T15:43:47.683974+00:00", "meta": {"OBJECT_NAME": "BEE-1000", "OBJECT_ID": "2025-274A", "EPOCH": "2025-12-22T01:50:15.669600", "MEAN_MOTION": 14.916911, "ECCENTRICITY": 0.00108663, "INCLINATION": 97.7404, "RA_OF_ASC_NODE": 283.0932, "ARG_OF_PERICENTER": 216.848, "MEAN_ANOMALY": 143.1994, "EPHEMERIS_TYPE": 0, "CLASSIFICATION_TYPE": "U", "NORAD_CAT_ID": 66650, "ELEMENT_SET_NO": 999, "REV_AT_EPOCH": 379, "BSTAR": 0.0001581754, "MEAN_MOTION_DOT": 1.536e-05, "MEAN_MOTION_DDOT": 0}, "tle": {"line1": "1 66650U 25274A   25356.07657025  .00001536  00000+0  15818-3 0  9996", "line2": "2 66650  97.7404 283.0932 0010866 216.8480 143.1994 14.91691100  3795"}}, "geometry": {"type": "Point", "coordinates": [95.52775998451222, -46.12874327902806]}}, {"type": "Feature", "properties": {"norad_id": 66651, "name": "2025-274B", "group": "last-30-days", "lat": -56.368227697740174, "lon": 91.86616335258773, "alt_km": 592.0921718094596, "timestamp": "2025-12-22T15:43:47.683989+00:00", "meta": {"OBJECT_NAME": "2025-274B", "OBJECT_ID": "2025-274B", "EPOCH": "2025-12-21T17:44:37.356000", "MEAN_MOTION": 14.91854943, "ECCENTRICITY": 0.00111294, "INCLINATION": 97.7399, "RA_OF_ASC_NODE": 282.7646, "ARG_OF_PERICENTER": 216.884, "MEAN_ANOMALY": 143.1615, "EPHEMERIS_TYPE": 0, "CLASSIFICATION_TYPE": "U", "NORAD_CAT_ID": 66651, "ELEMENT_SET_NO": 999, "REV_AT_EPOCH": 374, "BSTAR": 0.00029304221, "MEAN_MOTION_DOT": 2.907e-05, "MEAN_MOTION_DDOT": 0}, "tle": {"line1": "1 66651U 25274B   25355.73932125  .00002907  00000+0  29304-3 0  9994", "line2": "2 66651  97.7399 282.7646 0011129 216.8840 143.1615 14.91854943  3741"}}, "geometry": {"type": "Point", "coordinates": [91.86616335258773, -56.368227697740174]}}, {"type": "Feature", "properties": {"norad_id": 66652, "name": "2025-274C", "group": "last-30-days", "lat": -66.99737996434105, "lon": 84.98351858097718, "alt_km": 592.5080156833765, "timestamp": "2025-12-22T15:43:47.684000+00:00", "meta": {"OBJECT_NAME": "2025-274C", "OBJECT_ID": "2025-274C", "EPOCH": "2025-12-22T06:34:20.535456", "MEAN_MOTION": 14.91951584, "ECCENTRICITY": 0.00107003, "INCLINATION": 97.7405, "RA_OF_ASC_NODE": 283.2957, "ARG_OF_PERICENTER": 221.5965, "MEAN_ANOMALY": 138.4441, "EPHEMERIS_TYPE": 0, "CLASSIFICATION_TYPE": "U", "NORAD_CAT_ID": 66652, "ELEMENT_SET_NO": 999, "REV_AT_EPOCH": 382, "BSTAR": 0.00031358877, "MEAN_MOTION_DOT": 3.122e-05, "MEAN_MOTION_DDOT": 0}, "tle": {"line1": "1 66652U 25274C   25356.27384879  .00003122  00000+0  31359-3 0  9995", "line2": "2 66652  97.7405 283.2957 0010700 221.5965 138.4441 14.91951584  3828"}}, "geometry": {"type": "Point", "coordinates": [84.98351858097718, -66.99737996434105]}}, {"type": "Feature", "properties": {"norad_id": 66653, "name": "2025-274D", "group": "last-30-days", "lat": -67.4187444131279, "lon": 84.58012099006268, "alt_km": 592.2178565704253, "timestamp": "2025-12-22T15:43:47.684010+00:00", "meta": {"OBJECT_NAME": "2025-274D", "OBJECT_ID": "2025-274D", "EPOCH": "2025-12-22T01:44:29.360256", "MEAN_MOTION": 14.91947485, "ECCENTRICITY": 0.00116201, "INCLINATION": 97.7403, "RA_OF_ASC_NODE": 283.0978, "ARG_OF_PERICENTER": 219.0062, "MEAN_ANOMALY": 141.0319, "EPHEMERIS_TYPE": 0, "CLASSIFICATION_TYPE": "U", "NORAD_CAT_ID": 66653, "ELEMENT_SET_NO": 999, "REV_AT_EPOCH": 379, "BSTAR": 0.00020975597, "MEAN_MOTION_DOT": 2.07e-05, "MEAN_MOTION_DDOT": 0}, "tle": {"line1": "1 66653U 25274D   25356.07256204  .00002070  00000+0  20976-3 0  9998", "line2": "2 66653  97.7403 283.0978 0011620 219.0062 141.0319 14.91947485  3795"}}, "geometry": {"type": "Point", "coordinates": [84.58012099006268, -67.4187444131279]}}, {"type": "Feature", "properties": {"norad_id": 66654, "name": "JACK E", "group": "last-30-days", "lat": -80.68445181252004, "lon": 47.65902989251055, "alt_km": 592.7379875440884, "timestamp": "2025-12-22T15:43:47.684021+00:00", "meta": {"OBJECT_NAME": "JACK E", "OBJECT_ID": "2025-274E", "EPOCH": "2025-12-22T06:29:58.300224", "MEAN_MOTION": 14.92129735, "ECCENTRICITY": 0.00122178, "INCLINATION": 97.7407, "RA_OF_ASC_NODE": 283.3, "ARG_OF_PERICENTER": 219.9517, "MEAN_ANOMALY": 140.0804, "EPHEMERIS_TYPE": 0, "CLASSIFICATION_TYPE": "U", "NORAD_CAT_ID": 66654, "ELEMENT_SET_NO": 999, "REV_AT_EPOCH": 382, "BSTAR": 0.0002694466, "MEAN_MOTION_DOT": 2.687e-05, "MEAN_MOTION_DDOT": 0}, "tle": {"line1": "1 66654U 25274E   25356.27081366  .00002687  00000+0  26945-3 0  9992", "line2": "2 66654  97.7407 283.3000 0012217 219.9517 140.0804 14.92129735  3829"}}, "geometry": {"type": "Point", "coordinates": [47.65902989251055, -80.68445181252004]}}, {"type": "Feature", "properties": {"norad_id": 66655, "name": "2025-274F", "group": "last-30-days", "lat": -53.77836694237518, "lon": 92.96581625294179, "alt_km": 602.6541450434543, "timestamp": "2025-12-22T15:43:47.684031+00:00", "meta": {"OBJECT_NAME": "2025-274F", "OBJECT_ID": "2025-274F", "EPOCH": "2025-12-22T06:37:45.113376", "MEAN_MOTION": 14.91180932, "ECCENTRICITY": 0.00047771, "INCLINATION": 97.7336, "RA_OF_ASC_NODE": 283.2862, "ARG_OF_PERICENTER": 350.0852, "MEAN_ANOMALY": 10.0272, "EPHEMERIS_TYPE": 0, "CLASSIFICATION_TYPE": "U", "NORAD_CAT_ID": 66655, "ELEMENT_SET_NO": 999, "REV_AT_EPOCH": 382, "BSTAR": 1.8004503e-05, "MEAN_MOTION_DOT": 1.24e-06, "MEAN_MOTION_DDOT": 0}, "tle": {"line1": "1 66655U 25274F   25356.27621659  .00000124  00000+0  18005-4 0  9991", "line2": "2 66655  97.7336 283.2862 0004777 350.0852  10.0272 14.91180932  3827"}}, "geometry": {"type": "Point", "coordinates": [92.96581625294179, -53.77836694237518]}}]}